start=new Date('2021-10-13T00:00:00.000Z').valueOf();
sats=[{"OBJECT_TYPE":"PAYLOAD","NORAD_CAT_ID":"47648","REV_AT_EPOCH":"3776","MEAN_ANOMALY":"258.6513","SITE":"AFETR","INCLINATION":"53.0558","OBJECT_ID":"2021-012AE","CENTER_NAME":"EARTH","ARG_OF_PERICENTER":"101.4704","TIME_SYSTEM":"UTC","EPOCH":"2021-10-12T17:19:35.984928","BSTAR":"0.00003969000000","EPHEMERIS_TYPE":"0","MEAN_MOTION_DOT":"0.00000310","TLE_LINE1":"1 47648U 21012AE  21285.72194427  .00000310  00000-0  39690-4 0  9994","RA_OF_ASC_NODE":"74.5457","MEAN_ELEMENT_THEORY":"SGP4","FILE":"3159338","MEAN_MOTION_DDOT":"0.0000000000000","ECCENTRICITY":"0.00020280","RCS_SIZE":"MEDIUM","PERIOD":"95.591","APOAPSIS":"548.583","SEMIMAJOR_AXIS":"6925.314","MEAN_MOTION":"15.06411345","COUNTRY_CODE":"US","CLASSIFICATION_TYPE":"U","TLE_LINE2":"2 47648  53.0558  74.5457 0002028 101.4704 258.6513 15.06411345 37761","PERIAPSIS":"545.774","REF_FRAME":"TEME","GP_ID":"187015152","ELEMENT_SET_NO":"999","LAUNCH_DATE":"2021-02-16","DECAY_DATE":null,"OBJECT_NAME":"STARLINK-2031"},{"EPOCH":"2021-10-12T11:02:45.716640","BSTAR":"0.00002043600000","TIME_SYSTEM":"UTC","MEAN_ELEMENT_THEORY":"SGP4","RA_OF_ASC_NODE":"75.7322","MEAN_MOTION_DOT":"0.00000023","TLE_LINE1":"1 47649U 21012AF  21285.46025135  .00000023  00000-0  20436-4 0  9994","EPHEMERIS_TYPE":"0","CENTER_NAME":"EARTH","OBJECT_ID":"2021-012AF","INCLINATION":"53.0577","ARG_OF_PERICENTER":"88.0844","SITE":"AFETR","REV_AT_EPOCH":"3720","MEAN_ANOMALY":"272.0350","NORAD_CAT_ID":"47649","OBJECT_TYPE":"PAYLOAD","ELEMENT_SET_NO":"999","OBJECT_NAME":"STARLINK-2032","DECAY_DATE":null,"LAUNCH_DATE":"2021-02-16","COUNTRY_CODE":"US","GP_ID":"186985657","REF_FRAME":"TEME","TLE_LINE2":"2 47649  53.0577  75.7322 0001789  88.0844 272.0350 15.06407424 37206","CLASSIFICATION_TYPE":"U","PERIAPSIS":"545.952","APOAPSIS":"548.430","MEAN_MOTION":"15.06407424","SEMIMAJOR_AXIS":"6925.326","FILE":"3158966","PERIOD":"95.592","RCS_SIZE":"LARGE","MEAN_MOTION_DDOT":"0.0000000000000","ECCENTRICITY":"0.00017890"},{"COUNTRY_CODE":"US","GP_ID":"187016154","REF_FRAME":"TEME","CLASSIFICATION_TYPE":"U","TLE_LINE2":"2 47650  53.0569  74.6088 0001644  97.5766 262.5410 15.06402965 37749","PERIAPSIS":"546.066","ELEMENT_SET_NO":"999","OBJECT_NAME":"STARLINK-2033","LAUNCH_DATE":"2021-02-16","DECAY_DATE":null,"FILE":"3159338","RCS_SIZE":"LARGE","PERIOD":"95.592","MEAN_MOTION_DDOT":"0.0000000000000","ECCENTRICITY":"0.00016440","APOAPSIS":"548.343","MEAN_MOTION":"15.06402965","SEMIMAJOR_AXIS":"6925.339","CENTER_NAME":"EARTH","INCLINATION":"53.0569","OBJECT_ID":"2021-012AG","ARG_OF_PERICENTER":"97.5766","BSTAR":"0.00015478000000","EPOCH":"2021-10-12T17:03:40.473504","TIME_SYSTEM":"UTC","RA_OF_ASC_NODE":"74.6088","MEAN_ELEMENT_THEORY":"SGP4","EPHEMERIS_TYPE":"0","TLE_LINE1":"1 47650U 21012AG  21285.71088511  .00002025  00000-0  15478-3 0  9994","MEAN_MOTION_DOT":"0.00002025","NORAD_CAT_ID":"47650","OBJECT_TYPE":"PAYLOAD","SITE":"AFETR","MEAN_ANOMALY":"262.5410","REV_AT_EPOCH":"3774"},{"APOAPSIS":"548.312","SEMIMAJOR_AXIS":"6925.324","MEAN_MOTION":"15.06408123","FILE":"3159338","RCS_SIZE":"LARGE","PERIOD":"95.592","ECCENTRICITY":"0.00016220","MEAN_MOTION_DDOT":"0.0000000000000","ELEMENT_SET_NO":"999","OBJECT_NAME":"STARLINK-2035","LAUNCH_DATE":"2021-02-16","DECAY_DATE":null,"COUNTRY_CODE":"US","GP_ID":"187014902","REF_FRAME":"TEME","TLE_LINE2":"2 47651  53.0567  94.4559 0001622  96.9819 263.1355 15.06408123 37487","PERIAPSIS":"546.065","CLASSIFICATION_TYPE":"U","SITE":"AFETR","MEAN_ANOMALY":"263.1355","REV_AT_EPOCH":"3748","NORAD_CAT_ID":"47651","OBJECT_TYPE":"PAYLOAD","BSTAR":"-0.00009799400000","EPOCH":"2021-10-12T17:52:44.241600","TIME_SYSTEM":"UTC","RA_OF_ASC_NODE":"94.4559","MEAN_ELEMENT_THEORY":"SGP4","EPHEMERIS_TYPE":"0","MEAN_MOTION_DOT":"-0.00001741","TLE_LINE1":"1 47651U 21012AH  21285.74495650 -.00001741  00000-0 -97994-4 0  9994","CENTER_NAME":"EARTH","INCLINATION":"53.0567","OBJECT_ID":"2021-012AH","ARG_OF_PERICENTER":"96.9819"},{"REV_AT_EPOCH":"3744","MEAN_ANOMALY":"265.1982","SITE":"AFETR","OBJECT_TYPE":"PAYLOAD","NORAD_CAT_ID":"47652","TLE_LINE1":"1 47652U 21012AJ  21285.50631882  .00001825  00000-0  14137-3 0  9996","MEAN_MOTION_DOT":"0.00001825","EPHEMERIS_TYPE":"0","MEAN_ELEMENT_THEORY":"SGP4","RA_OF_ASC_NODE":"95.5191","TIME_SYSTEM":"UTC","BSTAR":"0.00014137000000","EPOCH":"2021-10-12T12:09:05.946048","ARG_OF_PERICENTER":"94.9200","OBJECT_ID":"2021-012AJ","INCLINATION":"53.0554","CENTER_NAME":"EARTH","MEAN_MOTION":"15.06406820","SEMIMAJOR_AXIS":"6925.328","APOAPSIS":"548.361","MEAN_MOTION_DDOT":"0.0000000000000","ECCENTRICITY":"0.00016870","PERIOD":"95.592","RCS_SIZE":"LARGE","FILE":"3158851","DECAY_DATE":null,"LAUNCH_DATE":"2021-02-16","OBJECT_NAME":"STARLINK-2036","ELEMENT_SET_NO":"999","TLE_LINE2":"2 47652  53.0554  95.5191 0001687  94.9200 265.1982 15.06406820 37447","PERIAPSIS":"546.024","CLASSIFICATION_TYPE":"U","REF_FRAME":"TEME","GP_ID":"186982544","COUNTRY_CODE":"US"},{"SEMIMAJOR_AXIS":"6925.352","MEAN_MOTION":"15.06399037","APOAPSIS":"548.593","MEAN_MOTION_DDOT":"0.0000000000000","ECCENTRICITY":"0.00019880","RCS_SIZE":"LARGE","PERIOD":"95.592","FILE":"3159338","LAUNCH_DATE":"2021-02-16","DECAY_DATE":null,"OBJECT_NAME":"STARLINK-2037","ELEMENT_SET_NO":"999","PERIAPSIS":"545.840","TLE_LINE2":"2 47653  53.0547  74.6481 0001988  90.4757 269.6460 15.06399037 37746","CLASSIFICATION_TYPE":"U","GP_ID":"187015904","REF_FRAME":"TEME","COUNTRY_CODE":"US","MEAN_ANOMALY":"269.6460","REV_AT_EPOCH":"3774","SITE":"AFETR","OBJECT_TYPE":"PAYLOAD","NORAD_CAT_ID":"47653","EPHEMERIS_TYPE":"0","TLE_LINE1":"1 47653U 21012AK  21285.69983309 -.00000099  00000-0  12273-4 0  9994","MEAN_MOTION_DOT":"-0.00000099","RA_OF_ASC_NODE":"74.6481","MEAN_ELEMENT_THEORY":"SGP4","TIME_SYSTEM":"UTC","BSTAR":"0.00001227300000","EPOCH":"2021-10-12T16:47:45.578976","ARG_OF_PERICENTER":"90.4757","INCLINATION":"53.0547","OBJECT_ID":"2021-012AK","CENTER_NAME":"EARTH"},{"CLASSIFICATION_TYPE":"U","TLE_LINE2":"2 47654  53.0548  95.7908 0001552  90.5266 269.5901 15.06397089 37439","PERIAPSIS":"546.148","GP_ID":"186981542","REF_FRAME":"TEME","COUNTRY_CODE":"US","DECAY_DATE":null,"LAUNCH_DATE":"2021-02-16","OBJECT_NAME":"STARLINK-2038","ELEMENT_SET_NO":"999","MEAN_MOTION_DDOT":"0.0000000000000","ECCENTRICITY":"0.00015520","PERIOD":"95.592","RCS_SIZE":"LARGE","FILE":"3158851","MEAN_MOTION":"15.06397089","SEMIMAJOR_AXIS":"6925.357","APOAPSIS":"548.297","ARG_OF_PERICENTER":"90.5266","OBJECT_ID":"2021-012AL","INCLINATION":"53.0548","CENTER_NAME":"EARTH","MEAN_MOTION_DOT":"-0.00000255","TLE_LINE1":"1 47654U 21012AL  21285.44366408 -.00000255  00000-0  17779-5 0  9994","EPHEMERIS_TYPE":"0","MEAN_ELEMENT_THEORY":"SGP4","RA_OF_ASC_NODE":"95.7908","TIME_SYSTEM":"UTC","EPOCH":"2021-10-12T10:38:52.576512","BSTAR":"0.00000177790000","OBJECT_TYPE":"PAYLOAD","NORAD_CAT_ID":"47654","REV_AT_EPOCH":"3743","MEAN_ANOMALY":"269.5901","SITE":"AFETR"},{"RCS_SIZE":"LARGE","PERIOD":"95.592","MEAN_MOTION_DDOT":"0.0000000000000","ECCENTRICITY":"0.00013800","FILE":"3158851","MEAN_MOTION":"15.06407091","SEMIMAJOR_AXIS":"6925.327","APOAPSIS":"548.148","REF_FRAME":"TEME","GP_ID":"186982793","CLASSIFICATION_TYPE":"U","TLE_LINE2":"2 47655  53.0548  95.5337 0001380  89.5789 270.5358 15.06407091 37445","PERIAPSIS":"546.236","COUNTRY_CODE":"US","OBJECT_NAME":"STARLINK-2039","LAUNCH_DATE":"2021-02-16","DECAY_DATE":null,"ELEMENT_SET_NO":"999","NORAD_CAT_ID":"47655","OBJECT_TYPE":"PAYLOAD","SITE":"AFETR","REV_AT_EPOCH":"3744","MEAN_ANOMALY":"270.5358","ARG_OF_PERICENTER":"89.5789","CENTER_NAME":"EARTH","INCLINATION":"53.0548","OBJECT_ID":"2021-012AM","RA_OF_ASC_NODE":"95.5337","MEAN_ELEMENT_THEORY":"SGP4","EPHEMERIS_TYPE":"0","MEAN_MOTION_DOT":"-0.00000514","TLE_LINE1":"1 47655U 21012AM  21285.50263767 -.00000514  00000-0 -15618-4 0  9994","EPOCH":"2021-10-12T12:03:47.894688","BSTAR":"-0.00001561800000","TIME_SYSTEM":"UTC"},{"APOAPSIS":"548.507","MEAN_MOTION":"15.06401299","SEMIMAJOR_AXIS":"6925.345","FILE":"3159338","PERIOD":"95.592","RCS_SIZE":"LARGE","MEAN_MOTION_DDOT":"0.0000000000000","ECCENTRICITY":"0.00018740","ELEMENT_SET_NO":"999","OBJECT_NAME":"STARLINK-2040","DECAY_DATE":null,"LAUNCH_DATE":"2021-02-16","COUNTRY_CODE":"US","GP_ID":"187015153","REF_FRAME":"TEME","TLE_LINE2":"2 47656  53.0551  74.5595 0001874  96.8460 263.2743 15.06401299 37753","PERIAPSIS":"545.912","CLASSIFICATION_TYPE":"U","SITE":"AFETR","MEAN_ANOMALY":"263.2743","REV_AT_EPOCH":"3775","NORAD_CAT_ID":"47656","OBJECT_TYPE":"PAYLOAD","BSTAR":"0.00007321500000","EPOCH":"2021-10-12T17:14:17.876544","TIME_SYSTEM":"UTC","MEAN_ELEMENT_THEORY":"SGP4","RA_OF_ASC_NODE":"74.5595","MEAN_MOTION_DOT":"0.00000809","TLE_LINE1":"1 47656U 21012AN  21285.71826246  .00000809  00000-0  73215-4 0  9997","EPHEMERIS_TYPE":"0","CENTER_NAME":"EARTH","OBJECT_ID":"2021-012AN","INCLINATION":"53.0551","ARG_OF_PERICENTER":"96.8460"},{"OBJECT_TYPE":"PAYLOAD","NORAD_CAT_ID":"47657","REV_AT_EPOCH":"3748","MEAN_ANOMALY":"256.3056","SITE":"AFETR","INCLINATION":"53.0546","OBJECT_ID":"2021-012AP","CENTER_NAME":"EARTH","ARG_OF_PERICENTER":"103.8116","TIME_SYSTEM":"UTC","EPOCH":"2021-10-12T18:57:49.488768","BSTAR":"0.00013500000000","EPHEMERIS_TYPE":"0","TLE_LINE1":"1 47657U 21012AP  21285.79015612  .00001730  00000-0  13500-3 0  9997","MEAN_MOTION_DOT":"0.00001730","RA_OF_ASC_NODE":"94.2556","MEAN_ELEMENT_THEORY":"SGP4","FILE":"3159338","MEAN_MOTION_DDOT":"0.0000000000000","ECCENTRICITY":"0.00016450","RCS_SIZE":"LARGE","PERIOD":"95.592","APOAPSIS":"548.364","SEMIMAJOR_AXIS":"6925.360","MEAN_MOTION":"15.06396407","COUNTRY_CODE":"US","TLE_LINE2":"2 47657  53.0546  94.2556 0001645 103.8116 256.3056 15.06396407 37481","CLASSIFICATION_TYPE":"U","PERIAPSIS":"546.085","GP_ID":"187015405","REF_FRAME":"TEME","ELEMENT_SET_NO":"999","LAUNCH_DATE":"2021-02-16","DECAY_DATE":null,"OBJECT_NAME":"STARLINK-2041"}];
